{"type": "FeatureCollection", "features": [ {"type": "Feature", "properties": {"norad_id": 28659, "name": "DIRECTV 8", "group": "intelsat", "lat": 0.04197833653046349, "lon": 120.56260721108589, "alt_km": 35797.851941890374, "timestamp": "2025-12-22T09:53:37.073813+00:00", "meta": {"OBJECT_NAME": "DIRECTV 8", "OBJECT_ID": "2005-019A", "EPOCH": "2025-12-22T03:48:31.715424", "MEAN_MOTION": 1.00271386, "ECCENTRICITY": 0.0002909, "INCLINATION": 0.0184, "RA_OF_ASC_NODE": 20.4819, "ARG_OF_PERICENTER": 261.4603, "MEAN_ANOMALY": 107.1167, "EPHEMERIS_TYPE": 0, "CLASSIFICATION_TYPE": "U", "NORAD_CAT_ID": 28659, "ELEMENT_SET_NO": 999, "REV_AT_EPOCH": 7529, "BSTAR": 0, "MEAN_MOTION_DOT": 2.3e-07, "MEAN_MOTION_DDOT": 0}, "tle": {"line1": "1 28659U 05019A   25356.15870041  .00000023  00000+0  00000+0 0  9995", "line2": "2 28659   0.0184  20.4819 0002909 261.4603 107.1167  1.00271386 75295"}}, "geometry": {"type": "Point", "coordinates": [120.56260721108589, 0.04197833653046349]}}, {"type": "Feature", "properties": {"norad_id": 28702, "name": "GALAXY 28 (G-28)", "group": "intelsat", "lat": 2.684421972731427, "lon": 150.87731196277596, "alt_km": 35793.100952239314, "timestamp": "2025-12-22T09:53:37.073824+00:00", "meta": {"OBJECT_NAME": "GALAXY 28 (G-28)", "OBJECT_ID": "2005-022A", "EPOCH": "2025-12-20T00:49:30.482112", "MEAN_MOTION": 1.00271047, "ECCENTRICITY": 0.00029384, "INCLINATION": 2.8382, "RA_OF_ASC_NODE": 81.1982, "ARG_OF_PERICENTER": 194.0723, "MEAN_ANOMALY": 97.2981, "EPHEMERIS_TYPE": 0, "CLASSIFICATION_TYPE": "U", "NORAD_CAT_ID": 28702, "ELEMENT_SET_NO": 999, "REV_AT_EPOCH": 5017, "BSTAR": 0, "MEAN_MOTION_DOT": -1.65e-06, "MEAN_MOTION_DDOT": 0}, "tle": {"line1": "1 28702U 05022A   25354.03438058 -.00000165  00000+0  00000+0 0  9999", "line2": "2 28702   2.8382  81.1982 0002938 194.0723  97.2981  1.00271047 50172"}}, "geometry": {"type": "Point", "coordinates": [150.87731196277596, 2.684421972731427]}}, {"type": "Feature", "properties": {"norad_id": 29236, "name": "GALAXY 16 (G-16)", "group": "intelsat", "lat": 0.00023839812005944306, "lon": 140.5842189069446, "alt_km": 35793.496299796025, "timestamp": "2025-12-22T09:53:37.073836+00:00", "meta": {"OBJECT_NAME": "GALAXY 16 (G-16)", "OBJECT_ID": "2006-023A", "EPOCH": "2025-12-22T02:25:24.842208", "MEAN_MOTION": 1.00270847, "ECCENTRICITY": 0.0002487, "INCLINATION": 0.0066, "RA_OF_ASC_NODE": 110.493, "ARG_OF_PERICENTER": 162.7571, "MEAN_ANOMALY": 115.0059, "EPHEMERIS_TYPE": 0, "CLASSIFICATION_TYPE": "U", "NORAD_CAT_ID": 29236, "ELEMENT_SET_NO": 999, "REV_AT_EPOCH": 7119, "BSTAR": 0, "MEAN_MOTION_DOT": -1.05e-06, "MEAN_MOTION_DDOT": 0}, "tle": {"line1": "1 29236U 06023A   25356.10098197 -.00000105  00000+0  00000+0 0  9994", "line2": "2 29236   0.0066 110.4930 0002487 162.7571 115.0059  1.00270847 71192"}}, "geometry": {"type": "Point", "coordinates": [140.5842189069446, 0.00023839812005944306]}}, {"type": "Feature", "properties": {"norad_id": 29494, "name": "DIRECTV 9S", "group": "intelsat", "lat": 1.6336459912184438, "lon": 138.37081425384395, "alt_km": 35794.64120968278, "timestamp": "2025-12-22T09:53:37.073848+00:00", "meta": {"OBJECT_NAME": "DIRECTV 9S", "OBJECT_ID": "2006-043A", "EPOCH": "2025-12-22T00:41:58.031232", "MEAN_MOTION": 1.00272253, "ECCENTRICITY": 0.0002851, "INCLINATION": 1.9627, "RA_OF_ASC_NODE": 83.115, "ARG_OF_PERICENTER": 192.7143, "MEAN_ANOMALY": 84.2937, "EPHEMERIS_TYPE": 0, "CLASSIFICATION_TYPE": "U", "NORAD_CAT_ID": 29494, "ELEMENT_SET_NO": 999, "REV_AT_EPOCH": 4960, "BSTAR": 0, "MEAN_MOTION_DOT": -9.3e-07, "MEAN_MOTION_DDOT": 0}, "tle": {"line1": "1 29494U 06043A   25356.02914388 -.00000093  00000+0  00000+0 0  9998", "line2": "2 29494   1.9627  83.1150 0002851 192.7143  84.2937  1.00272253 49600"}}, "geometry": {"type": "Point", "coordinates": [138.37081425384395, 1.6336459912184438]}}, {"type": "Feature", "properties": {"norad_id": 31307, "name": "GALAXY 17 (G-17)", "group": "intelsat", "lat": 2.4195563644286393, "lon": 154.56019081293772, "alt_km": 35789.687124084165, "timestamp": "2025-12-22T09:53:37.073859+00:00", "meta": {"OBJECT_NAME": "GALAXY 17 (G-17)", "OBJECT_ID": "2007-016B", "EPOCH": "2025-12-22T02:29:24.457920", "MEAN_MOTION": 1.00269968, "ECCENTRICITY": 0.0005337, "INCLINATION": 2.522, "RA_OF_ASC_NODE": 82.1798, "ARG_OF_PERICENTER": 170.8561, "MEAN_ANOMALY": 150.2505, "EPHEMERIS_TYPE": 0, "CLASSIFICATION_TYPE": "U", "NORAD_CAT_ID": 31307, "ELEMENT_SET_NO": 999, "REV_AT_EPOCH": 6802, "BSTAR": 0, "MEAN_MOTION_DOT": -1.86e-06, "MEAN_MOTION_DDOT": 0}, "tle": {"line1": "1 31307U 07016B   25356.10375530 -.00000186  00000+0  00000+0 0  9997", "line2": "2 31307   2.5220  82.1798 0005337 170.8561 150.2505  1.00269968 68023"}}, "geometry": {"type": "Point", "coordinates": [154.56019081293772, 2.4195563644286393]}}, {"type": "Feature", "properties": {"norad_id": 31862, "name": "DIRECTV 10", "group": "intelsat", "lat": 0.006313184097062023, "lon": 136.814839397491, "alt_km": 35785.65217701439, "timestamp": "2025-12-22T09:53:37.073871+00:00", "meta": {"OBJECT_NAME": "DIRECTV 10", "OBJECT_ID": "2007-032A", "EPOCH": "2025-12-21T16:08:00.885408", "MEAN_MOTION": 1.00272363, "ECCENTRICITY": 2.03e-05, "INCLINATION": 0.0084, "RA_OF_ASC_NODE": 101.8858, "ARG_OF_PERICENTER": 105.8192, "MEAN_ANOMALY": 21.9876, "EPHEMERIS_TYPE": 0, "CLASSIFICATION_TYPE": "U", "NORAD_CAT_ID": 31862, "ELEMENT_SET_NO": 999, "REV_AT_EPOCH": 4381, "BSTAR": 0, "MEAN_MOTION_DOT": -8.1e-07, "MEAN_MOTION_DDOT": 0}, "tle": {"line1": "1 31862U 07032A   25355.67223247 -.00000081  00000+0  00000+0 0  9993", "line2": "2 31862   0.0084 101.8858 0000203 105.8192  21.9876  1.00272363 43819"}}, "geometry": {"type": "Point", "coordinates": [136.814839397491, 0.006313184097062023]}}, {"type": "Feature", "properties": {"norad_id": 32253, "name": "INTELSAT 11 (IS-11)", "group": "intelsat", "lat": -0.9428148555800617, "lon": 62.81559358441843, "alt_km": 36167.52780568724, "timestamp": "2025-12-22T09:53:37.073883+00:00", "meta": {"OBJECT_NAME": "INTELSAT 11 (IS-11)", "OBJECT_ID": "2007-044B", "EPOCH": "2025-12-22T02:03:34.434144", "MEAN_MOTION": 0.9905273, "ECCENTRICITY": 0.0008541, "INCLINATION": 3.103, "RA_OF_ASC_NODE": 80.8735, "ARG_OF_PERICENTER": 169.6132, "MEAN_ANOMALY": 55.8954, "EPHEMERIS_TYPE": 0, "CLASSIFICATION_TYPE": "U", "NORAD_CAT_ID": 32253, "ELEMENT_SET_NO": 999, "REV_AT_EPOCH": 6669, "BSTAR": 0, "MEAN_MOTION_DOT": -1.07e-06, "MEAN_MOTION_DDOT": 0}, "tle": {"line1": "1 32253U 07044B   25356.08581521 -.00000107  00000+0  00000+0 0  9998", "line2": "2 32253   3.1030  80.8735 0008541 169.6132  55.8954  0.99052730 66699"}}, "geometry": {"type": "Point", "coordinates": [62.81559358441843, -0.9428148555800617]}}, {"type": "Feature", "properties": {"norad_id": 32388, "name": "HORIZONS-2", "group": "intelsat", "lat": 2.139217839210654, "lon": 165.77765355746342, "alt_km": 35793.37467002871, "timestamp": "2025-12-22T09:53:37.073894+00:00", "meta": {"OBJECT_NAME": "HORIZONS-2", "OBJECT_ID": "2007-063B", "EPOCH": "2025-12-22T02:32:31.659072", "MEAN_MOTION": 1.00271024, "ECCENTRICITY": 0.0004624, "INCLINATION": 2.1445, "RA_OF_ASC_NODE": 82.8602, "ARG_OF_PERICENTER": 194.9502, "MEAN_ANOMALY": 137.4522, "EPHEMERIS_TYPE": 0, "CLASSIFICATION_TYPE": "U", "NORAD_CAT_ID": 32388, "ELEMENT_SET_NO": 999, "REV_AT_EPOCH": 6603, "BSTAR": 0, "MEAN_MOTION_DOT": -2.33e-06, "MEAN_MOTION_DDOT": 0}, "tle": {"line1": "1 32388U 07063B   25356.10592198 -.00000233  00000+0  00000+0 0  9993", "line2": "2 32388   2.1445  82.8602 0004624 194.9502 137.4522  1.00271024 66030"}}, "geometry": {"type": "Point", "coordinates": [165.77765355746342, 2.139217839210654]}}, {"type": "Feature", "properties": {"norad_id": 32729, "name": "DIRECTV 11", "group": "intelsat", "lat": 0.0020977533119714183, "lon": 140.40541430396556, "alt_km": 35784.22126794924, "timestamp": "2025-12-22T09:53:37.073928+00:00", "meta": {"OBJECT_NAME": "DIRECTV 11", "OBJECT_ID": "2008-013A", "EPOCH": "2025-12-21T16:09:00.789120", "MEAN_MOTION": 1.00267418, "ECCENTRICITY": 8.57e-05, "INCLINATION": 0.0458, "RA_OF_ASC_NODE": 200.3144, "ARG_OF_PERICENTER": 330.5483, "MEAN_ANOMALY": 62.6867, "EPHEMERIS_TYPE": 0, "CLASSIFICATION_TYPE": "U", "NORAD_CAT_ID": 32729, "ELEMENT_SET_NO": 999, "REV_AT_EPOCH": 4381, "BSTAR": 0, "MEAN_MOTION_DOT": -1.03e-06, "MEAN_MOTION_DDOT": 0}, "tle": {"line1": "1 32729U 08013A   25355.67292580 -.00000103  00000+0  00000+0 0  9997", "line2": "2 32729   0.0458 200.3144 0000857 330.5483  62.6867  1.00267418 43812"}}, "geometry": {"type": "Point", "coordinates": [140.40541430396556, 0.0020977533119714183]}}, {"type": "Feature", "properties": {"norad_id": 32951, "name": "GALAXY 18 (G-18)", "group": "intelsat", "lat": 0.013569504228614268, "lon": 116.59225072658693, "alt_km": 35797.413757820155, "timestamp": "2025-12-22T09:53:37.073943+00:00", "meta": {"OBJECT_NAME": "GALAXY 18 (G-18)", "OBJECT_ID": "2008-024A", "EPOCH": "2025-12-22T03:55:52.854816", "MEAN_MOTION": 1.00271804, "ECCENTRICITY": 0.0002875, "INCLINATION": 0.0195, "RA_OF_ASC_NODE": 291.1281, "ARG_OF_PERICENTER": 344.1901, "MEAN_ANOMALY": 111.6144, "EPHEMERIS_TYPE": 0, "CLASSIFICATION_TYPE": "U", "NORAD_CAT_ID": 32951, "ELEMENT_SET_NO": 999, "REV_AT_EPOCH": 4407, "BSTAR": 0, "MEAN_MOTION_DOT": 4.7e-07, "MEAN_MOTION_DDOT": 0}, "tle": {"line1": "1 32951U 08024A   25356.16380619  .00000047  00000+0  00000+0 0  9998", "line2": "2 32951   0.0195 291.1281 0002875 344.1901 111.6144  1.00271804 44071"}}, "geometry": {"type": "Point", "coordinates": [116.59225072658693, 0.013569504228614268]}}]}